GLOBALSTAR M035         
1 25851U 99037A   25272.12491500 -.00000025  00000+0  14449-2 0  9990
2 25851  51.9934 183.1741 0013391 146.7998 353.5919 11.04539251107745
GLOBALSTAR M032         
1 25852U 99037B   25272.66189836 -.00000079  00000+0 -38516-3 0  9998
2 25852  51.9996 359.9681 0012083 343.7649  16.2762 11.19063284146486
GLOBALSTAR M051         
1 25853U 99037C   25271.93218170 -.00000082  00000+0 -24894-3 0  9990
2 25853  51.9777 150.6198 0001323  56.5764 303.5173 11.42205242144243
GLOBALSTAR M030         
1 25854U 99037D   25272.53090286 -.00000048  00000+0  56259-3 0  9995
2 25854  51.9889 308.6488 0003066 231.3725 128.6817 11.55115055162103
GLOBALSTAR M048         
1 25872U 99041A   25272.76759788 -.00000072  00000+0 -48149-4 0  9992
2 25872  51.9351  87.6787 0013501  10.1626  88.2617 11.33859240136849
GLOBALSTAR M026         
1 25873U 99041B   25272.28236706 -.00000017  00000+0  17365-2 0  9992
2 25873  52.0017 299.6881 0001828  86.4689 358.0758 11.06852401160017
GLOBALSTAR M043         
1 25874U 99041C   25272.77519465 -.00000104  00000+0 -10529-2 0  9996
2 25874  51.9389 199.4745 0013488 126.6680 272.6070 11.25694083134657
GLOBALSTAR M028         
1 25875U 99041D   25272.21394132 -.00000055  00000+0  28813-3 0  9998
2 25875  51.9613 242.8749 0063198 297.7093  61.7366 12.50589026203196
